#dP2018 12 15  0  0  0.00000000      96 __u+U ITR00 FIT  IAC
## 2031 518400.00000000   900.00000000 58467 0.0000000000000
+   90   C01C02C03C04C05C06C07C08C09C10C11C12C13C14C32E01E02
+        E03E04E05E07E08E09E11E12E13E14E15E18E19E21E24E25E26
+        E27E30G01G02G03G04G05G06G07G08G09G10G11G12G13G14G15
+        G16G17G18G19G20G21G22G23G24G26G27G28G29G30G31G32R01
+        R02R03R04R05R07R08R09R10R11R13R14R15R16R17R18R19R20
+        R21R22R23R24R26  0  0  0  0  0  0  0  0  0  0  0  0
++        12 12 12 12 12  8  8  9  8  8  8  8  8  8 18  5  5
++         5  5  5  5  5  5  5  5  6  5  7  5  5  5  5  5  5
++         6  6  3  3  3  4  4  3  3  3  3  4  3  4  4  3  3
++         3  3  3  3  3  3  3  3  4  3  3  3  3  4  3  4  5
++         5  5  5  5  5  5  5  5  5  5  5  5  5  5  5  5  5
++         5  5  5  6  8  0  0  0  0  0  0  0  0  0  0  0  0
%c M  cc GPS ccc cccc cccc cccc cccc ccccc ccccc ccccc ccccc
%c cc cc ccc ccc cccc cccc cccc cccc ccccc ccccc ccccc ccccc
%f  0.0000000  0.000000000  0.00000000000  0.000000000000000
%f  0.0000000  0.000000000  0.00000000000  0.000000000000000
%i    0    0    0    0      0      0      0      0         0
%i    0    0    0    0      0      0      0      0         0
/*                                                          
/*   RSA / INFORMATION & ANALYSIS CENTER (IAC) OF MCC       
/*   ULTRA-RAPID DETERMINATION                              
/* PCV:IGS14_2029 OL/AL:FES2004  NONE     YN ORB:CoN CLK:CoN
*  2018 12 15  1 30  0.00000000
PC01 -32324.750079  27043.005388   -867.648976    -37.971657
PC02   4471.976893  41917.098940   1029.591823   -171.580539
PC03 -14761.576551  39531.107439   -201.186281   -194.549275
PC04 -39613.095293  14368.595906   -405.055059   -254.004219
PC05  21878.829553  36038.521047   1288.052405     40.454038
PC06 -10390.426946  35440.957194  20937.209688    154.622314
PC07 -16184.281543  21093.708555 -32661.912081   -184.059876
PC08 -24219.900014  31062.002477  14758.663497     62.221813
PC09   -529.829789  41888.441405   6319.209091    366.731009
PC10   2425.189817  26852.095163 -32190.765040   -322.056218
PC11  11083.406227 -25520.129544   2665.618593    -88.111654
PC12  16581.480171  -2507.842490  22389.904491    276.114282
PC13 -12381.031166  31689.313024  24768.022251   -429.352082
PC14  12578.997060  -9952.323046 -22785.686525    462.782044
PC32 -21482.039774  -6768.639817  16483.542493     34.734578
PE01 -16376.361286 -15800.717610  18934.494247   -499.197973
PE02  16434.522138  15784.040765 -18894.034428     39.172779
PE03  12442.256829  26480.241020  -4453.047199   -110.850590
PE04 -18817.749630 -11324.010818  19842.041941   -179.156334
PE05  -1267.452944  26230.681212  13651.502566    142.423648
PE07  14185.520834 -10636.283706 -23704.141390    -93.803139
PE08  18809.260710  11116.086561 -19969.344830   6443.318449
PE09 -13968.692008  10686.367645  23805.723089   6588.274720
PE11 -22271.805237  17689.675324  -8216.413954   5716.060843
PE12 -19339.795617   -365.900248 -22400.340652   5718.536315
PE13  22190.546010 -17712.490542   8383.403714    196.834389
PE14 -12039.944691  25297.134873 -11182.045877   6474.805669
PE15  19480.112136   -167.038338  22298.350504    743.890239
PE18    599.017326 -27059.149839  -3442.902120   5681.887640
PE19 -11345.995313 -27217.373860   2551.171653     -9.888774
PE21   5994.929052 -15308.107289  24617.977616   -509.410427
PE24 -24134.210495   6030.664335 -16031.392900   6338.228443
PE25  -6035.935781  15291.543462 -24605.132831   1953.923809
PE26  12211.553622 -24911.772984 -10327.116629   5134.796764
PE27  24495.871150  -5765.497430  15596.856349    570.224159
PE30  28694.416448   7002.775648  -2038.586048   5269.421613
PG01   4415.266464 -17303.554501 -19726.529575   -129.062746
PG02 -21291.873194  15441.078408   3332.964131    -85.944633
PG03  -6337.591979 -18776.918818 -17754.942107    169.610627
PG04  13325.204423 -10921.323073  19810.862891    -98.428652
PG05 -14042.486889   8811.793405  20668.105565      0.387709
PG06 -24185.327307   5186.842714  -9668.604659    316.184345
PG07 -11617.906722 -11099.314293  21452.815124     70.398891
PG08   6429.851314 -24350.307757   8201.090169   -125.603685
PG09  -8364.379620 -21719.864565  12744.012845    483.073357
PG10  23867.635437  10191.166056  -6057.054701    151.419641
PG11   5566.287692 -23157.644446 -12519.555885   -688.497879
PG12   2154.030562  17894.802081 -19766.722905    284.440176
PG13 -12516.724608  19198.974161  13280.049527    -81.549050
PG14  15306.309077  -3962.531855 -21013.576344    -94.616403
PG15  -2544.344033  25720.729573   4873.156183   -336.221795
PG16  14845.621749  -6220.084213  21052.171380     -6.689845
PG17 -13569.747378  -7038.004636 -21329.647921    -18.499276
PG18  13500.932509 -18789.874219 -13385.696936      5.552103
PG19 -15244.676321   4101.549074 -21668.526466   -373.789710
PG20  22197.366733  14131.766793   3968.178764    519.960088
PG21  14619.905533   8991.562588  21057.164836   -287.192550
PG22   1486.683996 -16681.402034 -20390.563658   -598.832982
PG23  -2369.556091 -25922.628888   4305.683442   -203.506211
PG24  -8721.601757  18911.550040 -16438.694219    -59.509026
PG26  21547.936355    140.888035  15628.934394     67.946587
PG27  11730.865282 -17141.140625  16306.848892    -32.485912
PG28 -22179.171626 -13773.178241  -4014.613072    758.533679
PG29   4707.971503  23724.533554  10951.551553    315.260469
PG30 -20842.268524  -3391.660141  16228.324205    -19.924199
PG31  25011.234261  -6744.720011  -6820.021636     72.783238
PG32  15006.118828   4150.381872 -21489.987115   -318.256904
PR01 -15438.076119  -8107.142129  18616.837390     36.457866
PR02  -5519.299389  11415.562864  22171.862992    344.448491
PR03   6624.791648  21959.590275  11239.360615    151.669479
PR04  15103.415418  19443.425380  -6699.126950    287.468345
PR05  14582.238615   6266.504165 -19974.401613     17.696915
PR07  -6916.659882 -22037.790864 -10757.111954    -53.732514
PR08 -14911.614035 -19792.688973   6074.787713     20.003154
PR09  16514.891799  -8455.092333  17489.126609     43.793407
PR10   -347.765083 -10684.933185  23143.786696     37.654930
PR11 -18738.432755  -7499.653555  15641.917244    -50.192910
PR13 -17293.669167   8179.182763 -16887.183365    -17.911254
PR14    317.833716  10934.647679 -23027.766321     33.978672
PR15  18053.685811   7654.958564 -16293.220378     98.875480
PR16  25567.219996   -299.749320   -380.146660    108.777077
PR17  -6911.186635  21982.813031  10907.937042    187.978914
PR18   4491.108653  12185.311528  21983.609014     28.148211
PR19  13651.099331  -4168.131391  21147.194753    -62.117708
PR20  15271.669246 -19251.414971   6775.110279   -362.362140
PR21   6663.644069 -21867.201149 -11344.091654    -19.929975
PR22  -6064.953863  -9932.651849 -22673.793134    -64.468910
PR23 -14922.041520   8810.966427 -18719.272521    196.875142
PR24 -14606.021536  20216.071288  -5396.152855   -174.922995
PR26  15264.290961 -18592.278223   8541.359477      9.992456
EOF
